{
  "type": "FeatureCollection",
  "features": [
    {
      "type": "Feature",
      "properties": {
        "norad_id": 55268,
        "name": "GPS BIII-6  (PRN 28)",
        "group": "gnss",
        "lat": -30.960781563194402,
        "lon": 0.6544222532443195,
        "alt_km": 20194.21375205169,
        "timestamp": "2025-12-11T07:02:23.974247+00:00",
        "meta_object_name": "GPS BIII-6  (PRN 28)",
        "meta_object_id": "2023-009A",
        "meta_epoch": "2025-12-10T05:50:57.225696",
        "meta_mean_motion": 2.00555847,
        "meta_eccentricity": 0.00036975,
        "meta_inclination": 55.1051,
        "meta_ra_of_asc_node": 155.9432,
        "meta_arg_of_pericenter": 357.7706,
        "meta_mean_anomaly": 183.2285,
        "meta_ephemeris_type": 0,
        "meta_classification_type": "U",
        "meta_norad_cat_id": 55268,
        "meta_element_set_no": 999,
        "meta_rev_at_epoch": 2145,
        "meta_bstar": 0,
        "meta_mean_motion_dot": 7.5e-07,
        "meta_mean_motion_ddot": 0,
        "tle_line1": "1 55268U 23009A   25344.24371789  .00000075  00000+0  00000+0 0  9999",
        "tle_line2": "2 55268  55.1051 155.9432 0003697 357.7706 183.2285  2.00555847 21451"
      },
      "geometry": {
        "type": "Point",
        "coordinates": [
          0.6544222532443195,
          -30.960781563194402
        ]
      }
    },
    {
      "type": "Feature",
      "properties": {
        "norad_id": 56564,
        "name": "BEIDOU-3 G4 (C62)",
        "group": "gnss",
        "lat": 0.5711651886223534,
        "lon": -14.08081946796931,
        "alt_km": 35798.338730310126,
        "timestamp": "2025-12-11T07:02:23.974260+00:00",
        "meta_object_name": "BEIDOU-3 G4 (C62)",
        "meta_object_id": "2023-066A",
        "meta_epoch": "2025-12-10T19:37:21.498816",
        "meta_mean_motion": 1.00271414,
        "meta_eccentricity": 0.00029561,
        "meta_inclination": 0.8187,
        "meta_ra_of_asc_node": 301.9182,
        "meta_arg_of_pericenter": 234.1521,
        "meta_mean_anomaly": 358.1231,
        "meta_ephemeris_type": 0,
        "meta_classification_type": "U",
        "meta_norad_cat_id": 56564,
        "meta_element_set_no": 999,
        "meta_rev_at_epoch": 950,
        "meta_bstar": 0,
        "meta_mean_motion_dot": -1.06e-06,
        "meta_mean_motion_ddot": 0,
        "tle_line1": "1 56564U 23066A   25344.81760994 -.00000106  00000+0  00000+0 0  9991",
        "tle_line2": "2 56564   0.8187 301.9182 0002956 234.1521 358.1231  1.00271414  9503"
      },
      "geometry": {
        "type": "Point",
        "coordinates": [
          -14.08081946796931,
          0.5711651886223534
        ]
      }
    },
    {
      "type": "Feature",
      "properties": {
        "norad_id": 56759,
        "name": "NVS-01 (IRNSS-1J)",
        "group": "gnss",
        "lat": 2.34329736770862,
        "lon": -44.71038351429092,
        "alt_km": 35766.9635083105,
        "timestamp": "2025-12-11T07:02:23.974273+00:00",
        "meta_object_name": "NVS-01 (IRNSS-1J)",
        "meta_object_id": "2023-076A",
        "meta_epoch": "2025-12-10T21:00:18.188928",
        "meta_mean_motion": 1.00264298,
        "meta_eccentricity": 0.00085898,
        "meta_inclination": 2.6225,
        "meta_ra_of_asc_node": 251.6656,
        "meta_arg_of_pericenter": 8.8471,
        "meta_mean_anomaly": 263.8034,
        "meta_ephemeris_type": 0,
        "meta_classification_type": "U",
        "meta_norad_cat_id": 56759,
        "meta_element_set_no": 999,
        "meta_rev_at_epoch": 922,
        "meta_bstar": 0,
        "meta_mean_motion_dot": -3.31e-06,
        "meta_mean_motion_ddot": 0,
        "tle_line1": "1 56759U 23076A   25344.87521052 -.00000331  00000+0  00000+0 0  9994",
        "tle_line2": "2 56759   2.6225 251.6656 0008589   8.8471 263.8034  1.00264298  9221"
      },
      "geometry": {
        "type": "Point",
        "coordinates": [
          -44.71038351429092,
          2.34329736770862
        ]
      }
    },
    {
      "type": "Feature",
      "properties": {
        "norad_id": 57517,
        "name": "COSMOS 2569 (703K)",
        "group": "gnss",
        "lat": 15.890772498448538,
        "lon": -108.58720841558042,
        "alt_km": 19143.211681766854,
        "timestamp": "2025-12-11T07:02:23.974286+00:00",
        "meta_object_name": "COSMOS 2569 (703K)",
        "meta_object_id": "2023-114A",
        "meta_epoch": "2025-12-09T04:54:16.689312",
        "meta_mean_motion": 2.13103889,
        "meta_eccentricity": 0.0010394,
        "meta_inclination": 65.1923,
        "meta_ra_of_asc_node": 79.033,
        "meta_arg_of_pericenter": 287.0321,
        "meta_mean_anomaly": 72.8717,
        "meta_ephemeris_type": 0,
        "meta_classification_type": "U",
        "meta_norad_cat_id": 57517,
        "meta_element_set_no": 999,
        "meta_rev_at_epoch": 1821,
        "meta_bstar": 0,
        "meta_mean_motion_dot": -1.4e-07,
        "meta_mean_motion_ddot": 0,
        "tle_line1": "1 57517U 23114A   25343.20435983 -.00000014  00000+0  00000+0 0  9991",
        "tle_line2": "2 57517  65.1923  79.0330 0010394 287.0321  72.8717  2.13103889 18214"
      },
      "geometry": {
        "type": "Point",
        "coordinates": [
          -108.58720841558042,
          15.890772498448538
        ]
      }
    },
    {
      "type": "Feature",
      "properties": {
        "norad_id": 58654,
        "name": "BEIDOU-3 M28 (C50)",
        "group": "gnss",
        "lat": -37.44646386156571,
        "lon": 37.03311594032151,
        "alt_km": 21528.01134380068,
        "timestamp": "2025-12-11T07:02:23.974297+00:00",
        "meta_object_name": "BEIDOU-3 M28 (C50)",
        "meta_object_id": "2023-207A",
        "meta_epoch": "2025-12-10T06:57:54.812736",
        "meta_mean_motion": 1.86229669,
        "meta_eccentricity": 0.00023361,
        "meta_inclination": 55.5824,
        "meta_ra_of_asc_node": 68.6843,
        "meta_arg_of_pericenter": 269.0776,
        "meta_mean_anomaly": 90.9179,
        "meta_ephemeris_type": 0,
        "meta_classification_type": "U",
        "meta_norad_cat_id": 58654,
        "meta_element_set_no": 999,
        "meta_rev_at_epoch": 1332,
        "meta_bstar": 0,
        "meta_mean_motion_dot": -5.6e-07,
        "meta_mean_motion_ddot": 0,
        "tle_line1": "1 58654U 23207A   25344.29021774 -.00000056  00000+0  00000+0 0  9992",
        "tle_line2": "2 58654  55.5824  68.6843 0002336 269.0776  90.9179  1.86229669 13328"
      },
      "geometry": {
        "type": "Point",
        "coordinates": [
          37.03311594032151,
          -37.44646386156571
        ]
      }
    },
    {
      "type": "Feature",
      "properties": {
        "norad_id": 58655,
        "name": "BEIDOU-3 M26 (C48)",
        "group": "gnss",
        "lat": 55.56086203816164,
        "lon": 155.40849321541472,
        "alt_km": 21531.654338088345,
        "timestamp": "2025-12-11T07:02:23.974308+00:00",
        "meta_object_name": "BEIDOU-3 M26 (C48)",
        "meta_object_id": "2023-207B",
        "meta_epoch": "2025-12-09T13:13:20.106624",
        "meta_mean_motion": 1.86231165,
        "meta_eccentricity": 0.00037,
        "meta_inclination": 55.5839,
        "meta_ra_of_asc_node": 68.6957,
        "meta_arg_of_pericenter": 254.5617,
        "meta_mean_anomaly": 105.42,
        "meta_ephemeris_type": 0,
        "meta_classification_type": "U",
        "meta_norad_cat_id": 58655,
        "meta_element_set_no": 999,
        "meta_rev_at_epoch": 1329,
        "meta_bstar": 0,
        "meta_mean_motion_dot": -5.1e-07,
        "meta_mean_motion_ddot": 0,
        "tle_line1": "1 58655U 23207B   25343.55092716 -.00000051  00000+0  00000+0 0  9990",
        "tle_line2": "2 58655  55.5839  68.6957 0003700 254.5617 105.4200  1.86231165 13297"
      },
      "geometry": {
        "type": "Point",
        "coordinates": [
          155.40849321541472,
          55.56086203816164
        ]
      }
    },
    {
      "type": "Feature",
      "properties": {
        "norad_id": 59598,
        "name": "GSAT0225 (GALILEO 29)",
        "group": "gnss",
        "lat": 50.14401729835607,
        "lon": -130.6551889675144,
        "alt_km": 23213.692693360408,
        "timestamp": "2025-12-11T07:02:23.974320+00:00",
        "meta_object_name": "GSAT0225 (GALILEO 29)",
        "meta_object_id": "2024-079A",
        "meta_epoch": "2025-12-10T12:47:07.958400",
        "meta_mean_motion": 1.70474727,
        "meta_eccentricity": 0.00020453,
        "meta_inclination": 55.0006,
        "meta_ra_of_asc_node": 106.3566,
        "meta_arg_of_pericenter": 176.2356,
        "meta_mean_anomaly": 187.363,
        "meta_ephemeris_type": 0,
        "meta_classification_type": "U",
        "meta_norad_cat_id": 59598,
        "meta_element_set_no": 999,
        "meta_rev_at_epoch": 1010,
        "meta_bstar": 0,
        "meta_mean_motion_dot": 1e-07,
        "meta_mean_motion_ddot": 0,
        "tle_line1": "1 59598U 24079A   25344.53273100  .00000010  00000+0  00000+0 0  9996",
        "tle_line2": "2 59598  55.0006 106.3566 0002045 176.2356 187.3630  1.70474727 10101"
      },
      "geometry": {
        "type": "Point",
        "coordinates": [
          -130.6551889675144,
          50.14401729835607
        ]
      }
    }
  ]
}